CCSDS_OMM_VERS = 2.0
CREATION_DATE  = 
ORIGINATOR     = 

OBJECT_NAME    = ATLAS CENTAUR R/B
OBJECT_ID      = 1972-065B
CENTER_NAME    = EARTH
REF_FRAME      = TEME
TIME_SYSTEM    = UTC
MEAN_ELEMENT_THEORY = SGP/SGP4

EPOCH          = 2026-03-01T05:56:27.383424
MEAN_MOTION    = 14.77659101
ECCENTRICITY   = .0034362
INCLINATION    = 35.0029
RA_OF_ASC_NODE = 355.2261
ARG_OF_PERICENTER = 298.4287
MEAN_ANOMALY   = 61.2953

EPHEMERIS_TYPE = 0
CLASSIFICATION_TYPE = U
NORAD_CAT_ID   = 6155
ELEMENT_SET_NO = 999
REV_AT_EPOCH   = 84001
BSTAR          = .22812E-3
MEAN_MOTION_DOT = .1653E-4
MEAN_MOTION_DDOT = 0

CCSDS_OMM_VERS = 2.0
CREATION_DATE  = 
ORIGINATOR     = 

OBJECT_NAME    = SL-8 R/B
OBJECT_ID      = 1975-112B
CENTER_NAME    = EARTH
REF_FRAME      = TEME
TIME_SYSTEM    = UTC
MEAN_ELEMENT_THEORY = SGP/SGP4

EPOCH          = 2026-03-01T08:45:03.902400
MEAN_MOTION    = 14.38197904
ECCENTRICITY   = .0014629
INCLINATION    = 74.0610
RA_OF_ASC_NODE = 34.2256
ARG_OF_PERICENTER = 130.8312
MEAN_ANOMALY   = 229.4113

EPHEMERIS_TYPE = 0
CLASSIFICATION_TYPE = U
NORAD_CAT_ID   = 8459
ELEMENT_SET_NO = 999
REV_AT_EPOCH   = 63067
BSTAR          = .92006E-4
MEAN_MOTION_DOT = .254E-5
MEAN_MOTION_DDOT = 0

CCSDS_OMM_VERS = 2.0
CREATION_DATE  = 
ORIGINATOR     = 

OBJECT_NAME    = SL-3 R/B
OBJECT_ID      = 1977-057B
CENTER_NAME    = EARTH
REF_FRAME      = TEME
TIME_SYSTEM    = UTC
MEAN_ELEMENT_THEORY = SGP/SGP4

EPOCH          = 2026-03-01T18:06:29.135232
MEAN_MOTION    = 15.45228815
ECCENTRICITY   = .0006482
INCLINATION    = 97.5754
RA_OF_ASC_NODE = 232.3282
ARG_OF_PERICENTER = 318.0344
MEAN_ANOMALY   = 42.0406

EPHEMERIS_TYPE = 0
CLASSIFICATION_TYPE = U
NORAD_CAT_ID   = 10114
ELEMENT_SET_NO = 999
REV_AT_EPOCH   = 66710
BSTAR          = .36032E-3
MEAN_MOTION_DOT = .17054E-3
MEAN_MOTION_DDOT = 0

CCSDS_OMM_VERS = 2.0
CREATION_DATE  = 
ORIGINATOR     = 

OBJECT_NAME    = SEASAT 1
OBJECT_ID      = 1978-064A
CENTER_NAME    = EARTH
REF_FRAME      = TEME
TIME_SYSTEM    = UTC
MEAN_ELEMENT_THEORY = SGP/SGP4

EPOCH          = 2026-03-01T19:37:53.596416
MEAN_MOTION    = 14.46153178
ECCENTRICITY   = .0002109
INCLINATION    = 108.0130
RA_OF_ASC_NODE = 108.9816
ARG_OF_PERICENTER = 288.9104
MEAN_ANOMALY   = 71.1813

EPHEMERIS_TYPE = 0
CLASSIFICATION_TYPE = U
NORAD_CAT_ID   = 10967
ELEMENT_SET_NO = 999
REV_AT_EPOCH   = 50537
BSTAR          = .11556E-3
MEAN_MOTION_DOT = .276E-5
MEAN_MOTION_DDOT = 0

CCSDS_OMM_VERS = 2.0
CREATION_DATE  = 
ORIGINATOR     = 

OBJECT_NAME    = SL-14 R/B
OBJECT_ID      = 1979-011B
CENTER_NAME    = EARTH
REF_FRAME      = TEME
TIME_SYSTEM    = UTC
MEAN_ELEMENT_THEORY = SGP/SGP4

EPOCH          = 2026-03-01T14:22:45.173280
MEAN_MOTION    = 14.91896963
ECCENTRICITY   = .001764
INCLINATION    = 82.5218
RA_OF_ASC_NODE = 104.2497
ARG_OF_PERICENTER = 85.2918
MEAN_ANOMALY   = 275.0316

EPHEMERIS_TYPE = 0
CLASSIFICATION_TYPE = U
NORAD_CAT_ID   = 11267
ELEMENT_SET_NO = 999
REV_AT_EPOCH   = 52757
BSTAR          = .57601E-4
MEAN_MOTION_DOT = .61E-5
MEAN_MOTION_DDOT = 0

CCSDS_OMM_VERS = 2.0
CREATION_DATE  = 
ORIGINATOR     = 

OBJECT_NAME    = SL-8 R/B
OBJECT_ID      = 1979-089B
CENTER_NAME    = EARTH
REF_FRAME      = TEME
TIME_SYSTEM    = UTC
MEAN_ELEMENT_THEORY = SGP/SGP4

EPOCH          = 2026-03-01T13:27:57.552192
MEAN_MOTION    = 14.42344331
ECCENTRICITY   = .0017094
INCLINATION    = 74.0674
RA_OF_ASC_NODE = 106.0921
ARG_OF_PERICENTER = 279.5913
MEAN_ANOMALY   = 80.3312

EPHEMERIS_TYPE = 0
CLASSIFICATION_TYPE = U
NORAD_CAT_ID   = 11574
ELEMENT_SET_NO = 999
REV_AT_EPOCH   = 43493
BSTAR          = .84044E-4
MEAN_MOTION_DOT = .252E-5
MEAN_MOTION_DDOT = 0

CCSDS_OMM_VERS = 2.0
CREATION_DATE  = 
ORIGINATOR     = 

OBJECT_NAME    = SL-14 R/B
OBJECT_ID      = 1980-005B
CENTER_NAME    = EARTH
REF_FRAME      = TEME
TIME_SYSTEM    = UTC
MEAN_ELEMENT_THEORY = SGP/SGP4

EPOCH          = 2026-03-01T17:47:07.947744
MEAN_MOTION    = 14.90919171
ECCENTRICITY   = .0015478
INCLINATION    = 82.5159
RA_OF_ASC_NODE = 314.7753
ARG_OF_PERICENTER = 184.3561
MEAN_ANOMALY   = 175.7526

EPHEMERIS_TYPE = 0
CLASSIFICATION_TYPE = U
NORAD_CAT_ID   = 11672
ELEMENT_SET_NO = 999
REV_AT_EPOCH   = 47530
BSTAR          = .6653E-4
MEAN_MOTION_DOT = .683E-5
MEAN_MOTION_DDOT = 0

CCSDS_OMM_VERS = 2.0
CREATION_DATE  = 
ORIGINATOR     = 

OBJECT_NAME    = SL-8 R/B
OBJECT_ID      = 1981-003B
CENTER_NAME    = EARTH
REF_FRAME      = TEME
TIME_SYSTEM    = UTC
MEAN_ELEMENT_THEORY = SGP/SGP4

EPOCH          = 2026-03-01T17:18:49.427424
MEAN_MOTION    = 15.10616421
ECCENTRICITY   = .0262774
INCLINATION    = 82.9400
RA_OF_ASC_NODE = 297.3911
ARG_OF_PERICENTER = 206.3136
MEAN_ANOMALY   = 152.4553

EPHEMERIS_TYPE = 0
CLASSIFICATION_TYPE = U
NORAD_CAT_ID   = 12139
ELEMENT_SET_NO = 999
REV_AT_EPOCH   = 31347
BSTAR          = .4965E-3
MEAN_MOTION_DOT = .19173E-3
MEAN_MOTION_DDOT = 0

CCSDS_OMM_VERS = 2.0
CREATION_DATE  = 
ORIGINATOR     = 

OBJECT_NAME    = SL-3 R/B
OBJECT_ID      = 1981-046B
CENTER_NAME    = EARTH
REF_FRAME      = TEME
TIME_SYSTEM    = UTC
MEAN_ELEMENT_THEORY = SGP/SGP4

EPOCH          = 2026-03-01T19:15:07.107840
MEAN_MOTION    = 15.41752280
ECCENTRICITY   = .0020196
INCLINATION    = 81.2318
RA_OF_ASC_NODE = 299.2144
ARG_OF_PERICENTER = 48.9612
MEAN_ANOMALY   = 311.3372

EPHEMERIS_TYPE = 0
CLASSIFICATION_TYPE = U
NORAD_CAT_ID   = 12465
ELEMENT_SET_NO = 999
REV_AT_EPOCH   = 43721
BSTAR          = .34418E-3
MEAN_MOTION_DOT = .14693E-3
MEAN_MOTION_DDOT = 0

CCSDS_OMM_VERS = 2.0
CREATION_DATE  = 
ORIGINATOR     = 

OBJECT_NAME    = SL-3 R/B
OBJECT_ID      = 1981-103B
CENTER_NAME    = EARTH
REF_FRAME      = TEME
TIME_SYSTEM    = UTC
MEAN_ELEMENT_THEORY = SGP/SGP4

EPOCH          = 2026-03-01T19:31:50.337120
MEAN_MOTION    = 15.21258876
ECCENTRICITY   = .0012625
INCLINATION    = 81.1565
RA_OF_ASC_NODE = 222.6710
ARG_OF_PERICENTER = 315.0981
MEAN_ANOMALY   = 44.9228

EPHEMERIS_TYPE = 0
CLASSIFICATION_TYPE = U
NORAD_CAT_ID   = 12904
ELEMENT_SET_NO = 999
REV_AT_EPOCH   = 97203
BSTAR          = .28961E-3
MEAN_MOTION_DOT = .6507E-4
MEAN_MOTION_DDOT = 0

CCSDS_OMM_VERS = 2.0
CREATION_DATE  = 
ORIGINATOR     = 

OBJECT_NAME    = SL-3 R/B
OBJECT_ID      = 1982-013B
CENTER_NAME    = EARTH
REF_FRAME      = TEME
TIME_SYSTEM    = UTC
MEAN_ELEMENT_THEORY = SGP/SGP4

EPOCH          = 2026-03-01T18:13:34.826304
MEAN_MOTION    = 15.21918012
ECCENTRICITY   = .0022264
INCLINATION    = 81.1769
RA_OF_ASC_NODE = 170.0624
ARG_OF_PERICENTER = 204.4117
MEAN_ANOMALY   = 155.6063

EPHEMERIS_TYPE = 0
CLASSIFICATION_TYPE = U
NORAD_CAT_ID   = 13068
ELEMENT_SET_NO = 999
REV_AT_EPOCH   = 40314
BSTAR          = .261E-3
MEAN_MOTION_DOT = .6009E-4
MEAN_MOTION_DDOT = 0

CCSDS_OMM_VERS = 2.0
CREATION_DATE  = 
ORIGINATOR     = 

OBJECT_NAME    = SL-3 R/B
OBJECT_ID      = 1982-039B
CENTER_NAME    = EARTH
REF_FRAME      = TEME
TIME_SYSTEM    = UTC
MEAN_ELEMENT_THEORY = SGP/SGP4

EPOCH          = 2026-03-01T20:06:24.240384
MEAN_MOTION    = 15.10025322
ECCENTRICITY   = .0029898
INCLINATION    = 81.1579
RA_OF_ASC_NODE = 225.0143
ARG_OF_PERICENTER = 350.0697
MEAN_ANOMALY   = 9.9934

EPHEMERIS_TYPE = 0
CLASSIFICATION_TYPE = U
NORAD_CAT_ID   = 13154
ELEMENT_SET_NO = 999
REV_AT_EPOCH   = 38045
BSTAR          = .19643E-3
MEAN_MOTION_DOT = .3249E-4
MEAN_MOTION_DDOT = 0

