ATLAS CENTAUR R/B       
1 06155U 72065B   26060.24753916  .00001653  00000+0  22812-3 0  9990
2 06155  35.0029 355.2261 0034362 298.4287  61.2953 14.77659101840010
SL-8 R/B                
1 08459U 75112B   26060.36462850  .00000254  00000+0  92006-4 0  9991
2 08459  74.0610  34.2256 0014629 130.8312 229.4113 14.38197904630678
SL-3 R/B                
1 10114U 77057B   26060.75450388  .00017054  00000+0  36032-3 0  9990
2 10114  97.5754 232.3282 0006482 318.0344  42.0406 15.45228815667108
SEASAT 1                
1 10967U 78064A   26060.81798144  .00000276  00000+0  11556-3 0  9999
2 10967 108.0130 108.9816 0002109 288.9104  71.1813 14.46153178505376
SL-14 R/B               
1 11267U 79011B   26060.59913395  .00000610  00000+0  57601-4 0  9992
2 11267  82.5218 104.2497 0017640  85.2918 275.0316 14.91896963527579
SL-8 R/B                
1 11574U 79089B   26060.56108278  .00000252  00000+0  84044-4 0  9994
2 11574  74.0674 106.0921 0017094 279.5913  80.3312 14.42344331434933
SL-14 R/B               
1 11672U 80005B   26060.74106421  .00000683  00000+0  66530-4 0  9999
2 11672  82.5159 314.7753 0015478 184.3561 175.7526 14.90919171475306
SL-8 R/B                
1 12139U 81003B   26060.72140541  .00019173  00000+0  49650-3 0  9993
2 12139  82.9400 297.3911 0262774 206.3136 152.4553 15.10616421313472
SL-3 R/B                
1 12465U 81046B   26060.80216560  .00014693  00000+0  34418-3 0  9994
2 12465  81.2318 299.2144 0020196  48.9612 311.3372 15.41752280437214
SL-3 R/B                
1 12904U 81103B   26060.81377705  .00006507  00000+0  28961-3 0  9997
2 12904  81.1565 222.6710 0012625 315.0981  44.9228 15.21258876972032
SL-3 R/B                
1 13068U 82013B   26060.75943086  .00006009  00000+0  26100-3 0  9994
2 13068  81.1769 170.0624 0022264 204.4117 155.6063 15.21918012403145
SL-3 R/B                
1 13154U 82039B   26060.83778056  .00003249  00000+0  19643-3 0  9997
2 13154  81.1579 225.0143 0029898 350.0697   9.9934 15.10025322380455
